[{"OBJECT_NAME":"TRANSPORTER-14 OBJECT E","OBJECT_ID":"2025-135E","EPOCH":"2026-03-09T20:41:00.309696","MEAN_MOTION":15.23884665,"ECCENTRICITY":0.00053958,"INCLINATION":97.4603,"RA_OF_ASC_NODE":185.3351,"ARG_OF_PERICENTER":147.6959,"MEAN_ANOMALY":212.461,"EPHEMERIS_TYPE":0,"CLASSIFICATION_TYPE":"U","NORAD_CAT_ID":64532,"ELEMENT_SET_NO":999,"REV_AT_EPOCH":3978,"BSTAR":0.0006581062,"MEAN_MOTION_DOT":0.0001584,"MEAN_MOTION_DDOT":0},{"OBJECT_NAME":"STARLINK-36097","OBJECT_ID":"2025-298S","EPOCH":"2026-03-09T21:42:20.478816","MEAN_MOTION":15.26086669,"ECCENTRICITY":0.00039178,"INCLINATION":70.003,"RA_OF_ASC_NODE":12.9557,"ARG_OF_PERICENTER":200.4809,"MEAN_ANOMALY":159.6208,"EPHEMERIS_TYPE":0,"CLASSIFICATION_TYPE":"U","NORAD_CAT_ID":67091,"ELEMENT_SET_NO":999,"REV_AT_EPOCH":1327,"BSTAR":0.0027728212,"MEAN_MOTION_DOT":0.00072258,"MEAN_MOTION_DDOT":0}]
